1 25539U 88109F   20126.09992023 -.00000174  00000-0  51417-3 0  9999
2 25539   7.2334 325.9127 6919393 253.4499  25.1317  2.64281493200684
1 25540U 88109G   20127.08087306  .00000972  00000-0  10685-2 0  9996
2 25540   6.8313  97.4306 6786811 356.9936   0.2853  2.86645887208794
1 25541U 88109H   20126.27449692 -.00000011 +00000-0 +75697-3 0  9997
2 25541 007.2288 002.4611 7101043 189.4978 141.0334 02.36514562184184
1 25542U 88109J   20126.26136345 -.00000052 +00000-0 +13866-3 0  9990
2 25542 007.2187 010.3100 7163516 173.1232 208.4282 02.31738544186488
