[
    {
        "CCSDS_OMM_VERS": null,
        "CREATION_DATE": null,
        "ORIGINATOR": null,
        "OBJECT_NAME": null,
        "OBJECT_ID": "1988-109F",
        "CENTER_NAME": null,
        "REF_FRAME": null,
        "REF_FRAME_EPOCH": null,
        "TIME_SYSTEM": null,
        "MEAN_ELEMENT_THEORY": null,
        "COMMENT": null,
        "EPOCH": "2020-05-05T02:23:53.107Z",
        "SEMI_MAJOR_AXIS": null,
        "MEAN_MOTION": 2.64281493,
        "ECCENTRICITY": 0.6919393,
        "INCLINATION": 7.2334,
        "RA_OF_ASC_NODE": 325.9127,
        "ARG_OF_PERICENTER": 253.4499,
        "MEAN_ANOMALY": 25.1317,
        "GM": null,
        "MASS": null,
        "SOLAR_RAD_AREA": null,
        "SOLAR_RAD_COEFF": null,
        "DRAG_AREA": null,
        "DRAG_COEFF": null,
        "EPHEMERIS_TYPE": 0,
        "CLASSIFICATION_TYPE": "U",
        "NORAD_CAT_ID": 25539,
        "ELEMENT_SET_NO": 999,
        "REV_AT_EPOCH": 20068,
        "BSTAR": 0.00051417,
        "MEAN_MOTION_DOT": -0.00000174,
        "MEAN_MOTION_DDOT": 0,
        "COV_REF_FRAME": null,
        "CX_X": null,
        "CY_X": null,
        "CY_Y": null,
        "CZ_X": null,
        "CZ_Y": null,
        "CZ_Z": null,
        "CX_DOT_X": null,
        "CX_DOT_Y": null,
        "CX_DOT_Z": null,
        "CX_DOT_X_DOT": null,
        "CY_DOT_X": null,
        "CY_DOT_Y": null,
        "CY_DOT_Z": null,
        "CY_DOT_X_DOT": null,
        "CY_DOT_Y_DOT": null,
        "CZ_DOT_X": null,
        "CZ_DOT_Y": null,
        "CZ_DOT_Z": null,
        "CZ_DOT_X_DOT": null,
        "CZ_DOT_Y_DOT": null,
        "CZ_DOT_Z_DOT": null,
        "USER_DEFINED_BIP_0044_TYPE": null,
        "USER_DEFINED_OBJECT_DESIGNATOR": null,
        "USER_DEFINED_EARTH_MODEL": null,
        "USER_DEFINED_EPOCH_TIMESTAMP": null,
        "USER_DEFINED_MICROSECONDS": null
    },
    {
        "CCSDS_OMM_VERS": null,
        "CREATION_DATE": null,
        "ORIGINATOR": null,
        "OBJECT_NAME": null,
        "OBJECT_ID": "1988-109G",
        "CENTER_NAME": null,
        "REF_FRAME": null,
        "REF_FRAME_EPOCH": null,
        "TIME_SYSTEM": null,
        "MEAN_ELEMENT_THEORY": null,
        "COMMENT": null,
        "EPOCH": "2020-05-06T01:56:27.432Z",
        "SEMI_MAJOR_AXIS": null,
        "MEAN_MOTION": 2.86645887,
        "ECCENTRICITY": 0.6786811,
        "INCLINATION": 6.8313,
        "RA_OF_ASC_NODE": 97.4306,
        "ARG_OF_PERICENTER": 356.9936,
        "MEAN_ANOMALY": 0.2853,
        "GM": null,
        "MASS": null,
        "SOLAR_RAD_AREA": null,
        "SOLAR_RAD_COEFF": null,
        "DRAG_AREA": null,
        "DRAG_COEFF": null,
        "EPHEMERIS_TYPE": 0,
        "CLASSIFICATION_TYPE": "U",
        "NORAD_CAT_ID": 25540,
        "ELEMENT_SET_NO": 999,
        "REV_AT_EPOCH": 20879,
        "BSTAR": 0.0010685,
        "MEAN_MOTION_DOT": 0.00000972,
        "MEAN_MOTION_DDOT": 0,
        "COV_REF_FRAME": null,
        "CX_X": null,
        "CY_X": null,
        "CY_Y": null,
        "CZ_X": null,
        "CZ_Y": null,
        "CZ_Z": null,
        "CX_DOT_X": null,
        "CX_DOT_Y": null,
        "CX_DOT_Z": null,
        "CX_DOT_X_DOT": null,
        "CY_DOT_X": null,
        "CY_DOT_Y": null,
        "CY_DOT_Z": null,
        "CY_DOT_X_DOT": null,
        "CY_DOT_Y_DOT": null,
        "CZ_DOT_X": null,
        "CZ_DOT_Y": null,
        "CZ_DOT_Z": null,
        "CZ_DOT_X_DOT": null,
        "CZ_DOT_Y_DOT": null,
        "CZ_DOT_Z_DOT": null,
        "USER_DEFINED_BIP_0044_TYPE": null,
        "USER_DEFINED_OBJECT_DESIGNATOR": null,
        "USER_DEFINED_EARTH_MODEL": null,
        "USER_DEFINED_EPOCH_TIMESTAMP": null,
        "USER_DEFINED_MICROSECONDS": null
    },
    {
        "CCSDS_OMM_VERS": null,
        "CREATION_DATE": null,
        "ORIGINATOR": null,
        "OBJECT_NAME": null,
        "OBJECT_ID": "1988-109H",
        "CENTER_NAME": null,
        "REF_FRAME": null,
        "REF_FRAME_EPOCH": null,
        "TIME_SYSTEM": null,
        "MEAN_ELEMENT_THEORY": null,
        "COMMENT": null,
        "EPOCH": "2020-05-05T06:35:16.533Z",
        "SEMI_MAJOR_AXIS": null,
        "MEAN_MOTION": 2.36514562,
        "ECCENTRICITY": 0.7101043,
        "INCLINATION": 7.2288,
        "RA_OF_ASC_NODE": 2.4611,
        "ARG_OF_PERICENTER": 189.4978,
        "MEAN_ANOMALY": 141.0334,
        "GM": null,
        "MASS": null,
        "SOLAR_RAD_AREA": null,
        "SOLAR_RAD_COEFF": null,
        "DRAG_AREA": null,
        "DRAG_COEFF": null,
        "EPHEMERIS_TYPE": 0,
        "CLASSIFICATION_TYPE": "U",
        "NORAD_CAT_ID": 25541,
        "ELEMENT_SET_NO": 999,
        "REV_AT_EPOCH": 18418,
        "BSTAR": 0.00075697,
        "MEAN_MOTION_DOT": -0.00000011,
        "MEAN_MOTION_DDOT": 0,
        "COV_REF_FRAME": null,
        "CX_X": null,
        "CY_X": null,
        "CY_Y": null,
        "CZ_X": null,
        "CZ_Y": null,
        "CZ_Z": null,
        "CX_DOT_X": null,
        "CX_DOT_Y": null,
        "CX_DOT_Z": null,
        "CX_DOT_X_DOT": null,
        "CY_DOT_X": null,
        "CY_DOT_Y": null,
        "CY_DOT_Z": null,
        "CY_DOT_X_DOT": null,
        "CY_DOT_Y_DOT": null,
        "CZ_DOT_X": null,
        "CZ_DOT_Y": null,
        "CZ_DOT_Z": null,
        "CZ_DOT_X_DOT": null,
        "CZ_DOT_Y_DOT": null,
        "CZ_DOT_Z_DOT": null,
        "USER_DEFINED_BIP_0044_TYPE": null,
        "USER_DEFINED_OBJECT_DESIGNATOR": null,
        "USER_DEFINED_EARTH_MODEL": null,
        "USER_DEFINED_EPOCH_TIMESTAMP": null,
        "USER_DEFINED_MICROSECONDS": null
    },
    {
        "CCSDS_OMM_VERS": null,
        "CREATION_DATE": null,
        "ORIGINATOR": null,
        "OBJECT_NAME": null,
        "OBJECT_ID": "1988-109J",
        "CENTER_NAME": null,
        "REF_FRAME": null,
        "REF_FRAME_EPOCH": null,
        "TIME_SYSTEM": null,
        "MEAN_ELEMENT_THEORY": null,
        "COMMENT": null,
        "EPOCH": "2020-05-05T06:16:21.802Z",
        "SEMI_MAJOR_AXIS": null,
        "MEAN_MOTION": 2.31738544,
        "ECCENTRICITY": 0.7163516,
        "INCLINATION": 7.2187,
        "RA_OF_ASC_NODE": 10.31,
        "ARG_OF_PERICENTER": 173.1232,
        "MEAN_ANOMALY": 208.4282,
        "GM": null,
        "MASS": null,
        "SOLAR_RAD_AREA": null,
        "SOLAR_RAD_COEFF": null,
        "DRAG_AREA": null,
        "DRAG_COEFF": null,
        "EPHEMERIS_TYPE": 0,
        "CLASSIFICATION_TYPE": "U",
        "NORAD_CAT_ID": 25542,
        "ELEMENT_SET_NO": 999,
        "REV_AT_EPOCH": 18648,
        "BSTAR": 0.00013866,
        "MEAN_MOTION_DOT": -0.00000052,
        "MEAN_MOTION_DDOT": 0,
        "COV_REF_FRAME": null,
        "CX_X": null,
        "CY_X": null,
        "CY_Y": null,
        "CZ_X": null,
        "CZ_Y": null,
        "CZ_Z": null,
        "CX_DOT_X": null,
        "CX_DOT_Y": null,
        "CX_DOT_Z": null,
        "CX_DOT_X_DOT": null,
        "CY_DOT_X": null,
        "CY_DOT_Y": null,
        "CY_DOT_Z": null,
        "CY_DOT_X_DOT": null,
        "CY_DOT_Y_DOT": null,
        "CZ_DOT_X": null,
        "CZ_DOT_Y": null,
        "CZ_DOT_Z": null,
        "CZ_DOT_X_DOT": null,
        "CZ_DOT_Y_DOT": null,
        "CZ_DOT_Z_DOT": null,
        "USER_DEFINED_BIP_0044_TYPE": null,
        "USER_DEFINED_OBJECT_DESIGNATOR": null,
        "USER_DEFINED_EARTH_MODEL": null,
        "USER_DEFINED_EPOCH_TIMESTAMP": null,
        "USER_DEFINED_MICROSECONDS": null
    }
]